{"fetched_at":"2026-03-29T02:12:04Z","count":15717,"tles":[{"name":"CO3D 3","line1":"1 64900U 25156B   26083.67124353  .00016115  00000+0  48501-3 0  9992","line2":"2 64900  98.0290 163.8008 0180032 158.7023 202.1829 15.19951110 36696","category":"Other"}]}